STARLINK-31275          
1 59197U 24045V   25289.41460647  .00001392  00000+0  60162-4 0  9997
2 59197  42.9986 187.5642 0001260  47.7956 312.3003 15.27548549 91092
STARLINK-31590          
1 59198U 24045W   25289.09536576  .00001530  00000+0  65109-4 0  9997
2 59198  43.0012 189.4680 0000857 275.4662  84.6092 15.27569590 91044
STARLINK-31567          
1 59199U 24045X   25289.45042950  .00000125  00000+0  14048-4 0  9991
2 59199  43.0018 186.9779 0000657 265.9280  94.1497 15.27563266 91106
STARLINK-31503          
1 59200U 24045Y   25289.33335647  .00006839  00000+0  25779-3 0  9999
2 59200  43.0025 187.6894 0001358 271.4992 142.8093 15.27583425  5763
STARLINK-31603          
1 59201U 24046A   25289.98432726  .00003339  00000+0  12479-3 0  9993
2 59201  53.1574 103.1215 0001100  91.9774 268.1353 15.30204053 91041
STARLINK-31602          
1 59202U 24046B   25290.01270581  .00000305  00000+0  22428-4 0  9995
2 59202  53.1597 102.5829 0001179  84.4074 275.7062 15.30194776 91059
STARLINK-31577          
1 59203U 24046C   25290.16668980  .00011233  00000+0  39118-3 0  9991
2 59203  53.1574 101.6177 0001239  84.9338 171.8507 15.30169836  5904
STARLINK-31522          
1 59204U 24046D   25290.11284963 -.00000101  00000+0  87220-5 0  9994
2 59204  53.1581 102.4993 0000925 131.8284 228.2795 15.30191591 91062
STARLINK-31586          
1 59205U 24046E   25290.08751301 -.00001934  00000+0 -53184-4 0  9993
2 59205  53.1593 102.3382 0001032  87.7067 272.4052 15.30212104 91066
STARLINK-31247          
1 59206U 24046F   25290.03592227  .00008611  00000+0  30246-3 0  9999
2 59206  53.1579 102.7255 0001154  88.5962 271.5170 15.30207773 91058
STARLINK-31591          
1 59207U 24046G   25289.94950284  .00000990  00000+0  45537-4 0  9991
2 59207  53.1597 102.9013 0001323  78.8633 281.2517 15.30197644 91045
STARLINK-31576          
1 59208U 24046H   25290.00637645  .00012905  00000+0  44687-3 0  9997
2 59208  53.1598 102.5425 0001584  57.8087 302.3067 15.30215502 91059
STARLINK-31601          
1 59209U 24046J   25290.06113345 -.00003042  00000+0 -90611-4 0  9993
2 59209  53.1594 102.1722 0001045 106.2830 253.8286 15.30207997 91062
STARLINK-31520          
1 59210U 24046K   25290.03275922  .00001807  00000+0  73106-4 0  9997
2 59210  53.1579 102.7060 0000880 103.7565 256.3533 15.30209988 91055
STARLINK-31496          
1 59211U 24046L   25290.16389111  .00003043  00000+0  11483-3 0  9991
2 59211  53.1594  89.3281 0001231  81.3285 278.7856 15.30200916 91248
STARLINK-31492          
1 59212U 24046M   25289.98644756  .00032887  00000+0  11162-2 0  9990
2 59212  53.1568 103.1248 0000990  51.0341 309.0748 15.30239616 91030
STARLINK-31517          
1 59213U 24046N   25289.95056328  .00000234  00000+0  20036-4 0  9993
2 59213  53.1594 102.9324 0001256  87.1956 272.9188 15.30192669 91032
