[{"OBJECT_NAME":"STARLINK-31275","OBJECT_ID":"2024-045V","EPOCH":"2025-10-16T09:57:01.999008","MEAN_MOTION":15.27548549,"ECCENTRICITY":0.000126,"INCLINATION":42.9986,"RA_OF_ASC_NODE":187.5642,"ARG_OF_PERICENTER":47.7956,"MEAN_ANOMALY":312.3003,"EPHEMERIS_TYPE":0,"CLASSIFICATION_TYPE":"U","NORAD_CAT_ID":59197,"ELEMENT_SET_NO":999,"REV_AT_EPOCH":9109,"BSTAR":6.0162e-5,"MEAN_MOTION_DOT":1.392e-5,"MEAN_MOTION_DDOT":0},{"OBJECT_NAME":"STARLINK-31590","OBJECT_ID":"2024-045W","EPOCH":"2025-10-16T02:17:19.601664","MEAN_MOTION":15.2756959,"ECCENTRICITY":8.573e-5,"INCLINATION":43.0012,"RA_OF_ASC_NODE":189.468,"ARG_OF_PERICENTER":275.4662,"MEAN_ANOMALY":84.6092,"EPHEMERIS_TYPE":0,"CLASSIFICATION_TYPE":"U","NORAD_CAT_ID":59198,"ELEMENT_SET_NO":999,"REV_AT_EPOCH":9104,"BSTAR":6.5108927e-5,"MEAN_MOTION_DOT":1.53e-5,"MEAN_MOTION_DDOT":0},{"OBJECT_NAME":"STARLINK-31567","OBJECT_ID":"2024-045X","EPOCH":"2025-10-16T10:48:37.108800","MEAN_MOTION":15.27563266,"ECCENTRICITY":6.57e-5,"INCLINATION":43.0018,"RA_OF_ASC_NODE":186.9779,"ARG_OF_PERICENTER":265.928,"MEAN_ANOMALY":94.1497,"EPHEMERIS_TYPE":0,"CLASSIFICATION_TYPE":"U","NORAD_CAT_ID":59199,"ELEMENT_SET_NO":999,"REV_AT_EPOCH":9110,"BSTAR":1.4048e-5,"MEAN_MOTION_DOT":1.25e-6,"MEAN_MOTION_DDOT":0},{"OBJECT_NAME":"STARLINK-31503","OBJECT_ID":"2024-045Y","EPOCH":"2025-10-16T08:00:01.999008","MEAN_MOTION":15.27583425,"ECCENTRICITY":0.0001358,"INCLINATION":43.0025,"RA_OF_ASC_NODE":187.6894,"ARG_OF_PERICENTER":271.4992,"MEAN_ANOMALY":142.8093,"EPHEMERIS_TYPE":0,"CLASSIFICATION_TYPE":"U","NORAD_CAT_ID":59200,"ELEMENT_SET_NO":999,"REV_AT_EPOCH":576,"BSTAR":0.00025779,"MEAN_MOTION_DOT":6.839e-5,"MEAN_MOTION_DDOT":0},{"OBJECT_NAME":"STARLINK-31603","OBJECT_ID":"2024-046A","EPOCH":"2025-10-16T23:37:25.875264","MEAN_MOTION":15.30204053,"ECCENTRICITY":0.00011,"INCLINATION":53.1574,"RA_OF_ASC_NODE":103.1215,"ARG_OF_PERICENTER":91.9774,"MEAN_ANOMALY":268.1353,"EPHEMERIS_TYPE":0,"CLASSIFICATION_TYPE":"U","NORAD_CAT_ID":59201,"ELEMENT_SET_NO":999,"REV_AT_EPOCH":9104,"BSTAR":0.00012479,"MEAN_MOTION_DOT":3.339e-5,"MEAN_MOTION_DDOT":0},{"OBJECT_NAME":"STARLINK-31602","OBJECT_ID":"2024-046B","EPOCH":"2025-10-17T00:18:17.781984","MEAN_MOTION":15.30194776,"ECCENTRICITY":0.0001179,"INCLINATION":53.1597,"RA_OF_ASC_NODE":102.5829,"ARG_OF_PERICENTER":84.4074,"MEAN_ANOMALY":275.7062,"EPHEMERIS_TYPE":0,"CLASSIFICATION_TYPE":"U","NORAD_CAT_ID":59202,"ELEMENT_SET_NO":999,"REV_AT_EPOCH":9105,"BSTAR":2.2428e-5,"MEAN_MOTION_DOT":3.05e-6,"MEAN_MOTION_DDOT":0},{"OBJECT_NAME":"STARLINK-31577","OBJECT_ID":"2024-046C","EPOCH":"2025-10-17T04:00:01.998720","MEAN_MOTION":15.30169836,"ECCENTRICITY":0.0001239,"INCLINATION":53.1574,"RA_OF_ASC_NODE":101.6177,"ARG_OF_PERICENTER":84.9338,"MEAN_ANOMALY":171.8507,"EPHEMERIS_TYPE":0,"CLASSIFICATION_TYPE":"U","NORAD_CAT_ID":59203,"ELEMENT_SET_NO":999,"REV_AT_EPOCH":590,"BSTAR":0.00039118,"MEAN_MOTION_DOT":0.00011233,"MEAN_MOTION_DDOT":0},{"OBJECT_NAME":"STARLINK-31522","OBJECT_ID":"2024-046D","EPOCH":"2025-10-17T02:42:30.208032","MEAN_MOTION":15.30191591,"ECCENTRICITY":9.25e-5,"INCLINATION":53.1581,"RA_OF_ASC_NODE":102.4993,"ARG_OF_PERICENTER":131.8284,"MEAN_ANOMALY":228.2795,"EPHEMERIS_TYPE":0,"CLASSIFICATION_TYPE":"U","NORAD_CAT_ID":59204,"ELEMENT_SET_NO":999,"REV_AT_EPOCH":9106,"BSTAR":8.722e-6,"MEAN_MOTION_DOT":-1.01e-6,"MEAN_MOTION_DDOT":0},{"OBJECT_NAME":"STARLINK-31586","OBJECT_ID":"2024-046E","EPOCH":"2025-10-17T02:06:01.124064","MEAN_MOTION":15.30212104,"ECCENTRICITY":0.0001032,"INCLINATION":53.1593,"RA_OF_ASC_NODE":102.3382,"ARG_OF_PERICENTER":87.7067,"MEAN_ANOMALY":272.4052,"EPHEMERIS_TYPE":0,"CLASSIFICATION_TYPE":"U","NORAD_CAT_ID":59205,"ELEMENT_SET_NO":999,"REV_AT_EPOCH":9106,"BSTAR":-5.3184e-5,"MEAN_MOTION_DOT":-1.934e-5,"MEAN_MOTION_DDOT":0},{"OBJECT_NAME":"STARLINK-31247","OBJECT_ID":"2024-046F","EPOCH":"2025-10-17T00:51:43.684128","MEAN_MOTION":15.30207773,"ECCENTRICITY":0.0001154,"INCLINATION":53.1579,"RA_OF_ASC_NODE":102.7255,"ARG_OF_PERICENTER":88.5962,"MEAN_ANOMALY":271.517,"EPHEMERIS_TYPE":0,"CLASSIFICATION_TYPE":"U","NORAD_CAT_ID":59206,"ELEMENT_SET_NO":999,"REV_AT_EPOCH":9105,"BSTAR":0.00030246,"MEAN_MOTION_DOT":8.611e-5,"MEAN_MOTION_DDOT":0},{"OBJECT_NAME":"STARLINK-31591","OBJECT_ID":"2024-046G","EPOCH":"2025-10-16T22:47:17.045376","MEAN_MOTION":15.30197644,"ECCENTRICITY":0.0001323,"INCLINATION":53.1597,"RA_OF_ASC_NODE":102.9013,"ARG_OF_PERICENTER":78.8633,"MEAN_ANOMALY":281.2517,"EPHEMERIS_TYPE":0,"CLASSIFICATION_TYPE":"U","NORAD_CAT_ID":59207,"ELEMENT_SET_NO":999,"REV_AT_EPOCH":9104,"BSTAR":4.5537e-5,"MEAN_MOTION_DOT":9.9e-6,"MEAN_MOTION_DDOT":0},{"OBJECT_NAME":"STARLINK-31576","OBJECT_ID":"2024-046H","EPOCH":"2025-10-17T00:09:10.925280","MEAN_MOTION":15.30215502,"ECCENTRICITY":0.0001584,"INCLINATION":53.1598,"RA_OF_ASC_NODE":102.5425,"ARG_OF_PERICENTER":57.8087,"MEAN_ANOMALY":302.3067,"EPHEMERIS_TYPE":0,"CLASSIFICATION_TYPE":"U","NORAD_CAT_ID":59208,"ELEMENT_SET_NO":999,"REV_AT_EPOCH":9105,"BSTAR":0.00044687,"MEAN_MOTION_DOT":0.00012905,"MEAN_MOTION_DDOT":0},{"OBJECT_NAME":"STARLINK-31601","OBJECT_ID":"2024-046J","EPOCH":"2025-10-17T01:28:01.930080","MEAN_MOTION":15.30207997,"ECCENTRICITY":0.0001045,"INCLINATION":53.1594,"RA_OF_ASC_NODE":102.1722,"ARG_OF_PERICENTER":106.283,"MEAN_ANOMALY":253.8286,"EPHEMERIS_TYPE":0,"CLASSIFICATION_TYPE":"U","NORAD_CAT_ID":59209,"ELEMENT_SET_NO":999,"REV_AT_EPOCH":9106,"BSTAR":-9.0611e-5,"MEAN_MOTION_DOT":-3.042e-5,"MEAN_MOTION_DDOT":0},{"OBJECT_NAME":"STARLINK-31520","OBJECT_ID":"2024-046K","EPOCH":"2025-10-17T00:47:10.396608","MEAN_MOTION":15.30209988,"ECCENTRICITY":8.8e-5,"INCLINATION":53.1579,"RA_OF_ASC_NODE":102.706,"ARG_OF_PERICENTER":103.7565,"MEAN_ANOMALY":256.3533,"EPHEMERIS_TYPE":0,"CLASSIFICATION_TYPE":"U","NORAD_CAT_ID":59210,"ELEMENT_SET_NO":999,"REV_AT_EPOCH":9105,"BSTAR":7.3106e-5,"MEAN_MOTION_DOT":1.807e-5,"MEAN_MOTION_DDOT":0},{"OBJECT_NAME":"STARLINK-31496","OBJECT_ID":"2024-046L","EPOCH":"2025-10-17T03:56:00.191904","MEAN_MOTION":15.30200916,"ECCENTRICITY":0.0001231,"INCLINATION":53.1594,"RA_OF_ASC_NODE":89.3281,"ARG_OF_PERICENTER":81.3285,"MEAN_ANOMALY":278.7856,"EPHEMERIS_TYPE":0,"CLASSIFICATION_TYPE":"U","NORAD_CAT_ID":59211,"ELEMENT_SET_NO":999,"REV_AT_EPOCH":9124,"BSTAR":0.00011483,"MEAN_MOTION_DOT":3.043e-5,"MEAN_MOTION_DDOT":0},{"OBJECT_NAME":"STARLINK-31492","OBJECT_ID":"2024-046M","EPOCH":"2025-10-16T23:40:29.069184","MEAN_MOTION":15.30239616,"ECCENTRICITY":9.9e-5,"INCLINATION":53.1568,"RA_OF_ASC_NODE":103.1248,"ARG_OF_PERICENTER":51.0341,"MEAN_ANOMALY":309.0748,"EPHEMERIS_TYPE":0,"CLASSIFICATION_TYPE":"U","NORAD_CAT_ID":59212,"ELEMENT_SET_NO":999,"REV_AT_EPOCH":9103,"BSTAR":0.0011162,"MEAN_MOTION_DOT":0.00032887,"MEAN_MOTION_DDOT":0},{"OBJECT_NAME":"STARLINK-31517","OBJECT_ID":"2024-046N","EPOCH":"2025-10-16T22:48:48.667392","MEAN_MOTION":15.30192669,"ECCENTRICITY":0.0001256,"INCLINATION":53.1594,"RA_OF_ASC_NODE":102.9324,"ARG_OF_PERICENTER":87.1956,"MEAN_ANOMALY":272.9188,"EPHEMERIS_TYPE":0,"CLASSIFICATION_TYPE":"U","NORAD_CAT_ID":59213,"ELEMENT_SET_NO":999,"REV_AT_EPOCH":9103,"BSTAR":2.0036e-5,"MEAN_MOTION_DOT":2.34e-6,"MEAN_MOTION_DDOT":0}]
